# Sample element sets for trying SatLink offline. Elements age: for real tracking fetch fresh ones,
# e.g. curl -s 'https://celestrak.org/NORAD/elements/gp.php?GROUP=amateur&FORMAT=tle' > amateur.tle
#
# ISS-like elements with representative values for 2024-01-01 12:00 UTC.
ISS (ZARYA)
1 25544U 98067A   24001.50000000  .00016717  00000-0  30306-3 0  9999
2 25544  51.6416 247.4627 0006703 130.5360 325.0288 15.49815335432866
# Vanguard 1 and a geostationary satellite, from Vallado's SGP4 verification set.
VANGUARD 1
1 00005U 58002B   00179.78495062  .00000023  00000-0  28098-4 0  4753
2 00005  34.2682 348.7242 1859667 331.7664  19.3264 10.82419157413667
GEO 28626
1 28626U 05008A   06176.46683397 -.00000205  00000-0  10000-3 0  2190
2 28626   0.0019 286.9433 0000335  13.7918  55.6504  1.00270176  4891
